NORAD_CAT_ID,OBJECT_NAME,OBJECT_TYPE,EPOCH,MEAN_MOTION,ECCENTRICITY,INCLINATION,RA_OF_ASC_NODE,ARG_OF_PERICENTER,MEAN_ANOMALY,BSTAR,MEAN_MOTION_DOT,MEAN_MOTION_DDOT,TLE_LINE0,TLE_LINE1,TLE_LINE2,SEMIMAJOR_AXIS,PERIOD,APOGEE,PERIGEE,DECAYED
52873.0,STARLINK-4211,PAYLOAD,2024-08-02 10:50:47,15.0885954,0.0001439,53.2178,116.8696,84.8018,275.3139,0.00028083,4.187e-05,0.0,0 STARLINK-4211,1 52873U 22062AV  24215.45194361  .00004187  00000-0  28083-3 0  9998,2 52873  53.2178 116.8696 0001439  84.8018 275.3139 15.08859540117864,6917.821,95.436,540.681,538.69,0.0
52873.0,STARLINK-4211,PAYLOAD,2024-08-02 21:58:31,15.08822448,0.0001298,53.2163,114.7875,89.248,270.866,9.3013e-06,-1.4e-06,0.0,0 STARLINK-4211,1 52873U 22062AV  24215.91564503 -.00000140  00000-0  93013-5 0  9991,2 52873  53.2163 114.7875 0001298  89.2480 270.8660 15.08822448117933,6917.934,95.439,540.697,538.901,0.0
52873.0,STARLINK-4211,PAYLOAD,2024-08-03 02:44:40,15.0883421,0.0001322,53.2159,113.8901,111.5678,248.5455,1.7743e-06,-2.6e-06,0.0,0 STARLINK-4211,1 52873U 22062AV  24216.11435741 -.00000260  00000-0  17743-5 0  9994,2 52873  53.2159 113.8901 0001322 111.5678 248.5455 15.08834210118456,6917.898,95.438,540.678,538.849,0.0
52873.0,STARLINK-4211,PAYLOAD,2024-08-03 10:41:35,15.0884417,0.0001425,53.217,112.4065,110.6606,249.4539,0.0001997,2.892e-05,0.0,0 STARLINK-4211,1 52873U 22062AV  24216.44555511  .00002892  00000-0  19970-3 0  9992,2 52873  53.2170 112.4065 0001425 110.6606 249.4539 15.08844170118011,6917.868,95.437,540.718,538.747,0.0
52873.0,STARLINK-4211,PAYLOAD,2024-08-03 21:49:18,15.08842128,0.0002155,53.2163,110.3244,96.5688,263.5549,0.00022654,3.319e-05,0.0,0 STARLINK-4211,1 52873U 22062AV  24216.90923862  .00003319  00000-0  22654-3 0  9999,2 52873  53.2163 110.3244 0002155  96.5688 263.5549 15.08842128118088,6917.874,95.437,541.23,538.248,0.0
52873.0,STARLINK-4211,PAYLOAD,2024-08-04 10:32:23,15.08847839,0.0001779,53.2191,107.9429,107.1813,252.9374,0.00026506,3.934e-05,0.0,0 STARLINK-4211,1 52873U 22062AV  24217.43915552  .00003934  00000-0  26506-3 0  9998,2 52873  53.2191 107.9429 0001779 107.1813 252.9374 15.08847839118167,6917.856,95.437,540.952,538.491,0.0
52873.0,STARLINK-4211,PAYLOAD,2024-08-04 21:40:05,15.08847884,0.0001941,53.2174,105.8623,120.8562,239.2621,0.00041721,6.359e-05,0.0,0 STARLINK-4211,1 52873U 22062AV  24217.90283740  .00006359  00000-0  41721-3 0  9997,2 52873  53.2174 105.8623 0001941 120.8562 239.2621 15.08847884118720,6917.856,95.437,541.064,538.379,0.0
52873.0,STARLINK-4211,PAYLOAD,2024-08-04 23:15:28,15.08852707,0.0001507,53.2172,105.5654,100.4334,259.6828,0.00052222,8.036e-05,0.0,0 STARLINK-4211,1 52873U 22062AV  24217.96907726  .00008036  00000-0  52222-3 0  9992,2 52873  53.2172 105.5654 0001507 100.4334 259.6828 15.08852707118240,6917.842,95.437,540.749,538.664,0.0
52873.0,STARLINK-4211,PAYLOAD,2024-08-05 21:30:52,15.08831736,0.0001198,53.216,101.4028,108.2184,251.8938,2.0349e-05,3.6e-07,0.0,0 STARLINK-4211,1 52873U 22062AV  24218.89644666  .00000036  00000-0  20349-4 0  9994,2 52873  53.2160 101.4028 0001198 108.2184 251.8938 15.08831736118876,6917.906,95.438,540.599,538.942,0.0
52873.0,STARLINK-4211,PAYLOAD,2024-08-05 23:06:16,15.0882035,0.0001404,53.2174,101.1049,104.8406,255.2742,-0.00026232,-4.458e-05,0.0,0 STARLINK-4211,1 52873U 22062AV  24218.96268910 -.00004458  00000-0 -26232-3 0  9996,2 52873  53.2174 101.1049 0001404 104.8406 255.2742 15.08820350118398,6917.94,95.439,540.777,538.834,0.0
52873.0,STARLINK-4211,PAYLOAD,2024-08-06 08:38:35,15.08827347,0.0001287,53.2168,99.3227,107.0005,253.1129,4.0768e-05,3.61e-06,0.0,0 STARLINK-4211,1 52873U 22062AV  24219.36013178  .00000361  00000-0  40768-4 0  9993,2 52873  53.2168  99.3227 0001287 107.0005 253.1129 15.08827347118452,6917.919,95.438,540.674,538.894,0.0
52873.0,STARLINK-4211,PAYLOAD,2024-08-06 19:46:17,15.08854613,0.0001687,53.2164,97.2402,115.6441,244.4726,0.00082105,0.00012808,0.0,0 STARLINK-4211,1 52873U 22062AV  24219.82380801  .00012808  00000-0  82105-3 0  9993,2 52873  53.2164  97.2402 0001687 115.6441 244.4726 15.08854613119018,6917.836,95.437,540.868,538.534,0.0
52873.0,STARLINK-4211,PAYLOAD,2024-08-06 21:21:40,15.08853865,0.0001087,53.2164,96.9431,114.5,245.6106,0.00083407,0.00013016,0.0,0 STARLINK-4211,1 52873U 22062AV  24219.89004811  .00013016  00000-0  83407-3 0  9992,2 52873  53.2164  96.9431 0001087 114.5000 245.6106 15.08853865118538,6917.838,95.437,540.455,538.951,0.0
52873.0,STARLINK-4211,PAYLOAD,2024-08-07 02:07:49,15.08859226,0.0001243,53.2163,96.0509,126.3007,233.81,0.00086103,0.00013449,0.0,0 STARLINK-4211,1 52873U 22062AV  24220.08876495  .00013449  00000-0  86103-3 0  9996,2 52873  53.2163  96.0509 0001243 126.3007 233.8100 15.08859226118569,6917.822,95.436,540.547,538.827,0.0
52873.0,STARLINK-4211,PAYLOAD,2024-08-07 19:37:03,15.08858555,0.0001916,53.2161,92.7741,144.1029,216.0092,0.00041105,6.263e-05,0.0,0 STARLINK-4211,1 52873U 22062AV  24220.81739902  .00006263  00000-0  41105-3 0  9997,2 52873  53.2161  92.7741 0001916 144.1029 216.0092 15.08858555119161,6917.824,95.436,541.014,538.363,0.0
52873.0,STARLINK-4211,PAYLOAD,2024-08-07 21:12:26,15.08857538,0.0001467,53.2164,92.4826,123.8629,236.2502,0.00027966,4.168e-05,0.0,0 STARLINK-4211,1 52873U 22062AV  24220.88364044  .00004168  00000-0  27966-3 0  9996,2 52873  53.2164  92.4826 0001467 123.8629 236.2502 15.08857538118682,6917.827,95.436,540.707,538.677,0.0
52873.0,STARLINK-4211,PAYLOAD,2024-08-08 00:23:12,15.08856125,0.00013,53.2163,91.889,110.3309,249.7823,0.00021055,3.066e-05,0.0,0 STARLINK-4211,1 52873U 22062AV  24221.01612044  .00003066  00000-0  21055-3 0  9997,2 52873  53.2163  91.8890 0001300 110.3309 249.7823 15.08856125118706,6917.831,95.437,540.595,538.797,0.0
52873.0,STARLINK-4211,PAYLOAD,2024-08-08 21:03:13,15.08845972,0.0001373,53.2173,88.0249,91.12,268.995,2.5991e-07,-2.84e-06,0.0,0 STARLINK-4211,1 52873U 22062AV  24221.87724093 -.00000284  00000-0  25991-6 0  9995,2 52873  53.2173  88.0249 0001373  91.1200 268.9950 15.08845972119320,6917.862,95.437,540.677,538.777,0.0
52873.0,STARLINK-4211,PAYLOAD,2024-08-08 22:38:36,15.08848435,0.0001301,53.2171,87.7273,80.6566,279.4573,4.4874e-06,-2.16e-06,0.0,0 STARLINK-4211,1 52873U 22062AV  24221.94348045 -.00000216  00000-0  44874-5 0  9997,2 52873  53.2171  87.7273 0001301  80.6566 279.4573 15.08848435118841,6917.855,95.437,540.62,538.82,0.0
52873.0,STARLINK-4211,PAYLOAD,2024-08-09 08:10:55,15.08851545,0.0001208,53.217,85.9401,97.5234,262.5895,0.00020956,3.05e-05,0.0,0 STARLINK-4211,1 52873U 22062AV  24222.34091735  .00003050  00000-0  20956-3 0  9994,2 52873  53.2170  85.9401 0001208  97.5234 262.5895 15.08851545118901,6917.845,95.437,540.546,538.874,0.0
52873.0,STARLINK-4211,PAYLOAD,2024-08-09 20:54:01,15.08829257,8.31e-05,53.2172,83.5626,92.4933,267.6155,-0.00014526,-2.598e-05,0.0,0 STARLINK-4211,1 52873U 22062AV  24222.87084851 -.00002598  00000-0 -14526-3 0  9997,2 52873  53.2172  83.5626 0000831  92.4933 267.6155 15.08829257119470,6917.913,95.438,540.353,539.203,0.0
52873.0,STARLINK-4211,PAYLOAD,2024-08-09 22:29:23,15.08845765,0.0001148,53.217,83.264,100.299,259.8131,0.00010098,1.32e-05,0.0,0 STARLINK-4211,1 52873U 22062AV  24222.93708108  .00001320  00000-0  10098-3 0  9992,2 52873  53.2170  83.2640 0001148 100.2990 259.8131 15.08845765119484,6917.863,95.437,540.522,538.934,0.0
52873.0,STARLINK-4211,PAYLOAD,2024-08-10 14:23:15,15.08844702,0.0001067,53.2167,80.291,101.5816,258.5296,9.4521e-05,1.217e-05,0.0,0 STARLINK-4211,1 52873U 22062AV  24223.59948161  .00001217  00000-0  94521-4 0  9999,2 52873  53.2167  80.2910 0001067 101.5816 258.5296 15.08844702119093,6917.866,95.437,540.469,538.993,0.0
52873.0,STARLINK-4211,PAYLOAD,2024-08-10 20:44:47,15.08843361,0.0001096,53.2166,79.0989,108.8722,251.2389,9.1312e-05,1.166e-05,0.0,0 STARLINK-4211,1 52873U 22062AV  24223.86444246  .00001166  00000-0  91312-4 0  9992,2 52873  53.2166  79.0989 0001096 108.8722 251.2389 15.08843361119624,6917.87,95.437,540.493,538.977,0.0
52873.0,STARLINK-4211,PAYLOAD,2024-08-11 20:35:35,15.08831197,8.7e-05,53.217,74.6429,102.1551,257.9539,0.00015129,2.12e-05,0.0,0 STARLINK-4211,1 52873U 22062AV  24224.85805083  .00002120  00000-0  15129-3 0  9994,2 52873  53.2170  74.6429 0000870 102.1551 257.9539 15.08831197119775,6917.907,95.438,540.374,539.17,0.0
52873.0,STARLINK-4211,PAYLOAD,2024-08-12 14:04:51,15.08809972,0.0001228,53.2182,71.3726,93.9331,266.1801,-0.00017082,-3.003e-05,0.0,0 STARLINK-4211,1 52873U 22062AV  24225.58670947 -.00003003  00000-0 -17082-3 0  9997,2 52873  53.2182  71.3726 0001228  93.9331 266.1801 15.08809972119391,6917.972,95.439,540.687,538.988,0.0
52873.0,STARLINK-4211,PAYLOAD,2024-08-12 20:26:22,15.08847997,0.0001048,53.2208,70.1792,96.9957,263.1155,0.00014644,2.044e-05,0.0,0 STARLINK-4211,1 52873U 22062AV  24225.85164865  .00002044  00000-0  14644-3 0  9997,2 52873  53.2208  70.1792 0001048  96.9957 263.1155 15.08847997119924,6917.856,95.437,540.446,538.996,0.0
52873.0,STARLINK-4211,PAYLOAD,2024-08-13 13:55:39,15.08804182,0.0001085,53.2182,66.9106,101.3251,258.7863,-0.00013348,-2.409e-05,0.0,0 STARLINK-4211,1 52873U 22062AV  24226.58032272 -.00002409  00000-0 -13348-3 0  9991,2 52873  53.2182  66.9106 0001085 101.3251 258.7863 15.08804182120035,6917.99,95.44,540.605,539.104,0.0
52873.0,STARLINK-4211,PAYLOAD,2024-08-13 20:17:11,15.08828377,0.0001433,53.2148,65.724,96.584,263.5316,0.00019191,2.767e-05,0.0,0 STARLINK-4211,1 52873U 22062AV  24226.84527558  .00002767  00000-0  19191-3 0  9993,2 52873  53.2148  65.7240 0001433  96.5840 263.5316 15.08828377120072,6917.916,95.438,540.772,538.79,0.0
52873.0,STARLINK-4211,PAYLOAD,2024-08-14 05:49:30,15.08830373,0.0001481,53.2164,63.9402,97.8218,262.2943,0.00018884,2.718e-05,0.0,0 STARLINK-4211,1 52873U 22062AV  24227.24271123  .00002718  00000-0  18884-3 0  9996,2 52873  53.2164  63.9402 0001481  97.8218 262.2943 15.08830373119648,6917.91,95.438,540.799,538.75,0.0
